ZHUHAI-1 02 (CAS-4B)    
1 42759U 17034B   23104.53984101  .00009093  00000+0  47311-3 0  9992
2 42759  43.0157 109.2020 0009864  43.8935  99.7952 15.16201337321974
ZHUHAI-1 01 (CAS-4A)    
1 42761U 17034D   23104.48981774  .00009667  00000+0  50127-3 0  9998
2 42761  43.0150 108.0323 0010762  45.1796  89.5492 15.16256378321973
MAX VALIER SAT          
1 42778U 17036P   23104.05528047  .00024357  00000+0  69952-3 0  9990
2 42778  97.1656 140.5172 0007055 345.4208  14.6832 15.35806314322879
RADFXSAT (FOX-1B)       
1 43017U 17073E   23104.20159607  .00008010  00000+0  57163-3 0  9996
2 43017  97.6387 351.0774 0234668 280.5275  76.9582 14.85213898291684
FOX-1D (AO-92)          
1 43137U 18004AC  23104.16308792  .00040822  00000+0  97066-3 0  9993
2 43137  97.3321 182.8636 0005195  23.4302 336.7181 15.41526295292432
DIWATA-2B               
1 43678U 18084H   23104.46592061  .00001894  00000+0  18699-3 0  9999
2 43678  98.0108 247.1970 0010015  18.9798 341.1799 14.93175139242752
ES'HAIL 2               
1 43700U 18090A   23104.49519150  .00000133  00000+0  00000+0 0  9991
2 43700   0.0141 159.0060 0001314 252.5857 354.8628  1.00271970 16040
FOX-1CLIFF (AO-95)      
1 43770U 18099N   23104.36502743  .00006543  00000+0  54212-3 0  9992
2 43770  97.5768 167.6325 0012423 345.8367  14.2506 14.99112958238047
ITASAT 1                
1 43786U 18099AE  23104.22170526  .00004958  00000+0  41420-3 0  9999
2 43786  97.5812 168.5291 0013950 341.5959  18.4757 14.98895695238063
JY1SAT (JO-97)          
1 43803U 18099AX  23104.22837192  .00007271  00000+0  58781-3 0  9997
2 43803  97.5748 168.4723 0012736 329.1884  30.8591 15.00021879238108
UWE-4                   
1 43880U 18111E   23104.26135797  .00008923  00000+0  69444-3 0  9996
2 43880  97.6433  10.4557 0017792  37.3825 322.8633 15.01354141234778
NEXUS (FO-99)           
1 43937U 19003F   23104.04129805  .00051566  00000+0  10464-2 0  9997
2 43937  97.0967 132.3197 0016761 145.8707 214.3624 15.46044779236117
JAISAT-1                
1 44419U 19038F   23104.47522550  .00028988  00000+0  10865-2 0  9999
2 44419  97.6716  84.2361 0016838 156.1797 204.0224 15.27083705208806
DUCHIFAT-3              
1 44854U 19089C   23104.44276944  .00009253  00000+0  64165-3 0  9995
2 44854  36.9636 111.9534 0007995 167.0822 345.0685 15.05126507183229
CAS-6 (TIANQIN 1)       
1 44881U 19093C   23104.64742592  .00001362  00000+0  17656-3 0  9995
2 44881  97.8624 184.1807 0013455 287.2447  72.7307 14.82369555179386
RS-44 & BREEZE-KM R/B   
1 44909U 19096E   23104.26975162  .00000013  00000+0  14005-4 0  9996
2 44909  82.5261  30.4123 0217129 336.7337  22.4048 12.79719933153986
BY70-2                  
1 45857U 20042B   23104.38116147  .00021164  00000+0  23138-2 0  9990
2 45857  97.9267 184.1784 0010238 206.2063 153.8662 14.87825380150044
SALSAT                  
1 46495U 20068K   23104.39684849  .00007708  00000+0  51656-3 0  9992
2 46495  97.7642  51.7768 0015219 343.3835  16.6891 15.07073387139461
RADFXSAT-2 (AO-109)     
1 47311U 21002C   23103.98752432  .00030454  00000+0  87183-3 0  9995
2 47311  60.6819 304.7456 0026539 141.5771 218.7218 15.35461368124411
UVSQ-SAT                
1 47438U 21006AB  23104.12094191  .00017310  00000+0  75224-3 0  9996
2 47438  97.3921 162.2198 0008621 309.8279  50.2198 15.22318003122895
DIY-1 (ARDUIQUBE)       
1 47963U 21022AH  23103.98073541  .00122845  00000+0  29623-2 0  9997
2 47963  97.5041   9.9734 0012322 144.5212 215.6856 15.40677724112648
XW-3 (CAS-9)            
1 50466U 21131B   23104.47233993  .00000940  00000+0  32016-3 0  9996
2 50466  98.5526 186.2186 0003609 345.8911  14.2175 14.38822879 68195
TEVEL-3                 
1 50988U 22002E   23104.44241924  .00022591  00000+0  97523-3 0  9993
2 50988  97.4385 171.9420 0009697 102.7074  21.1371 15.22481029 69053
TEVEL-8                 
1 50989U 22002F   23104.39369477  .00022446  00000+0  97082-3 0  9991
2 50989  97.4407 171.9461 0009775 102.4822  26.3241 15.22417165 69041
TEVEL-5                 
1 50998U 22002Q   23104.42029666  .00023414  00000+0  98894-3 0  9996
2 50998  97.4382 172.2342 0010838  96.9602  31.5511 15.23203410 69078
TEVEL-6                 
1 50999U 22002R   23104.48396300  .00023418  00000+0  98889-3 0  9993
2 50999  97.4376 172.2931 0010891  98.1458  27.1309 15.23210758 69088
TEVEL-1                 
1 51013U 22002AF  23104.45034219  .00022576  00000+0  97574-3 0  9990
2 51013  97.4385 171.9026 0009553 102.0058  21.4046 15.22442390 69051
TEVEL-7                 
1 51062U 22002CG  23104.39530903  .00022536  00000+0  97433-3 0  9998
2 51062  97.4402 171.9235 0009729 102.2945  26.5284 15.22429086 69045
TEVEL-4                 
1 51063U 22002CH  23104.39987622  .00022336  00000+0  96693-3 0  9998
2 51063  97.4403 171.9153 0009722 101.5328  29.6742 15.22387472 69041
TEVEL-2                 
1 51069U 22002CP  23104.30210394  .00022557  00000+0  97396-3 0  9996
2 51069  97.4378 171.7770 0009526 102.0389 323.0424 15.22475973 69037
GREENCUBE               
1 53106U 22080B   23102.68218782 -.00000003  00000+0  00000+0 0  9999
2 53106  70.1748 342.4876 0008257 200.3328 159.7004  6.42557159 17545
RS29S (SXC3-2110 CYCLO*)
1 53373U 22096D   23104.55623905  .00035199  00000+0  10397-2 0  9993
2 53373  97.4183  10.2897 0003225  74.5129  47.5969 15.34867030 37919
RS32S (SXC3-212 MONITO*)
1 53374U 22096E   23104.55804631  .00031032  00000+0  93008-3 0  9994
2 53374  97.4166  10.2547 0003122  65.2969  38.5227 15.34434715 37915
RS34S (SXC3-218 KUZBAS*)
1 53375U 22096F   23104.57135028  .00026861  00000+0  84311-3 0  9995
2 53375  97.4195  10.1016 0002880  67.5463  16.2121 15.32997581 37900
RS23S (SXC3-21 UTMN)    
1 53376U 22096G   23104.55597400  .00027952  00000+0  86508-3 0  9992
2 53376  97.4182  10.1354 0002929  66.7251  56.1458 15.33438712 37905
RS28S (SXC3-214 MIET-A*)
1 53377U 22096H   23104.56994576  .00025417  00000+0  80156-3 0  9996
2 53377  97.4191  10.1080 0002771  63.8480  21.7973 15.32858726 37909
RS26S (KAI-1)           
1 53378U 22096J   23104.43054549  .00021022  00000+0  68565-3 0  9998
2 53378  97.4201   9.8523 0002685  56.6948  56.2293 15.31817181 37875
RS19S (SXC3-219 ISOI)   
1 53381U 22096M   23104.42518797  .00026257  00000+0  80901-3 0  9994
2 53381  97.4185  10.1520 0001651 327.4237 152.6261 15.33596209 37899
RS21S (CUBESX-HSE-2)    
1 53383U 22096P   23104.53947082  .00027518  00000+0  84149-3 0  9990
2 53383  97.4184  10.3048 0001863 325.1111 138.3674 15.33826081 37914
RS30S (SXC3-217 SIREN)  
1 53384U 22096Q   23104.58325931  .00022848  00000+0  72121-3 0  9997
2 53384  97.4199  10.2506 0001697 311.3225 149.4074 15.32853087 37919
RS20S (GEOSCAN-EDELVEIS)
1 53385U 22096R   23104.57929176  .00036382  00000+0  10272-2 0  9994
2 53385  97.4176  10.6934 0001735 317.6296 140.5041 15.36284313 37970
RS33S (SXC3-215 VIZARD) 
1 53386U 22096S   23104.42851128  .00046123  00000+0  12031-2 0  9999
2 53386  97.4175  10.8975 0001763 314.8935 158.3114 15.38687404 37964
CAS-5A (FO-118)         
1 54684U 22167C   23104.41589671  .00015286  00000+0  88178-3 0  9992
2 54684  97.5511 242.5393 0014457 191.1633 256.2342 15.12363996 19032
